OBJECT_NAME,OBJECT_ID,EPOCH,MEAN_MOTION,ECCENTRICITY,INCLINATION,RA_OF_ASC_NODE,ARG_OF_PERICENTER,MEAN_ANOMALY,EPHEMERIS_TYPE,CLASSIFICATION_TYPE,NORAD_CAT_ID,ELEMENT_SET_NO,REV_AT_EPOCH,BSTAR,MEAN_MOTION_DOT,MEAN_MOTION_DDOT
FENGYUN 3D,2017-072A,2026-07-18T05:26:24.694080,14.19744597,.00014074,99.0149,174.2134,8.2002,351.9197,0,U,43010,999,44939,.21463358E-4,-.1E-7,0
NOAA 20 (JPSS-1),2017-073A,2026-07-18T07:08:00.521664,14.19516792,.0001504,98.7772,138.4844,121.0882,239.0442,0,U,43013,999,44888,.30686194E-4,.21E-6,0
GOES 17,2018-022A,2026-07-18T05:57:26.868960,1.00270835,.00006215,1.0150,85.2152,69.8059,140.8922,0,U,43226,999,3073,0,-.191E-5,0
SENTINEL-3B,2018-039A,2026-07-18T04:29:25.681920,14.26736887,.00012168,98.6234,266.2721,119.6897,240.4405,0,U,43437,999,42854,.37091753E-4,.46E-6,0
FENGYUN 2H,2018-050A,2026-07-17T23:54:55.696608,1.00266934,.00022459,3.1089,78.7114,133.7146,161.1974,0,U,43491,999,2974,0,-.136E-5,0
METOP-C,2018-087A,2026-07-18T05:59:26.179584,14.21503322,.00021242,98.6627,258.2828,89.6252,270.5169,0,U,43689,999,39924,.32876307E-4,.29E-6,0
GEO-KOMPSAT-2A,2018-100A,2026-07-18T05:16:51.019680,1.00273136,.00023152,0.0305,160.4783,295.3721,47.6390,0,U,43823,999,2794,0,-.352E-5,0
METEOR-M2 2,2019-038A,2026-07-18T05:21:19.355616,14.24374748,.00005409,98.9162,186.9697,357.9234,2.1942,0,U,44387,999,36571,.20649741E-3,.432E-5,0
ARKTIKA-M 1,2021-016A,2026-07-14T09:46:38.558208,2.00611590,.7297332,63.2662,53.6722,270.0591,14.4994,0,U,47719,999,3933,0,-.301E-5,0
FENGYUN 3E,2021-062A,2026-07-18T06:39:43.265376,14.19907650,.00021068,98.7499,202.3403,33.7010,326.4300,0,U,49008,999,26099,.19691261E-3,.374E-5,0
GOES 18,2022-021A,2026-07-17T22:53:06.508320,1.00272139,.0000429,0.0156,130.5732,38.1260,333.3332,0,U,51850,999,690,0,.88E-6,0
NOAA 21 (JPSS-2),2022-150A,2026-07-18T06:12:56.794752,14.19541313,.00028837,98.7059,137.5264,99.2826,260.8677,0,U,54234,999,19095,.18639912E-4,-.4E-7,0
METEOSAT-12 (MTG-I1),2022-170C,2026-07-18T06:22:46.939584,1.00268617,.00039431,0.7285,20.2726,81.3487,289.7853,0,U,54743,999,1329,0,-.17E-6,0
TIANMU-1 03,2023-039A,2026-07-18T06:40:04.368576,15.48097216,.0002318,97.5247,14.4860,16.5736,343.5589,0,U,55973,999,18564,.16456079E-3,.8532E-4,0
TIANMU-1 04,2023-039B,2026-07-18T07:40:14.905344,15.48727399,.00027102,97.5188,13.6857,0.5547,359.5706,0,U,55974,999,18566,.16940499E-3,.8983E-4,0
TIANMU-1 05,2023-039C,2026-07-18T07:47:39.149088,15.48023713,.00026836,97.5232,14.1380,37.8947,322.2491,0,U,55975,999,18563,.16427582E-3,.8495E-4,0
TIANMU-1 06,2023-039D,2026-07-18T07:48:00.819936,15.48623636,.00027481,97.5240,14.8057,27.9837,332.1560,0,U,55976,999,18566,.1669806E-3,.882E-4,0
FENGYUN 3G,2023-055A,2026-07-18T05:48:56.822112,15.53876840,.00069396,49.9913,185.8447,70.2195,289.9520,0,U,56232,999,18483,.22184185E-3,.14135E-3,0
METEOR-M2 3,2023-091A,2026-07-18T07:04:39.357408,14.24049107,.00051302,98.6066,253.6338,83.3942,276.7821,0,U,57166,999,15894,.13718012E-4,-.12E-6,0
TIANMU-1 07,2023-101A,2026-07-18T07:07:51.191328,15.30136049,.00035299,97.2572,249.2549,58.2670,301.8915,0,U,57399,999,16640,.11314728E-3,.3225E-4,0
TIANMU-1 08,2023-101B,2026-07-18T07:53:52.133568,15.30139737,.00043095,97.2561,249.0521,38.2395,321.9151,0,U,57400,999,16640,.11167384E-3,.3183E-4,0
TIANMU-1 09,2023-101C,2026-07-18T07:28:55.505856,15.30181438,.00041379,97.2519,248.4352,57.7738,302.3903,0,U,57401,999,16640,.1157038E-3,.3305E-4,0
TIANMU-1 10,2023-101D,2026-07-18T06:43:07.921056,15.30154900,.00053866,97.2599,249.4864,45.7717,314.3965,0,U,57402,999,16639,.11401573E-3,.3253E-4,0
FENGYUN 3F,2023-111A,2026-07-18T07:56:57.052032,14.19943744,.00012112,98.6823,268.7575,75.7169,284.4142,0,U,57490,999,15328,.22263533E-4,.4E-7,0
ARKTIKA-M 2,2023-198A,2026-07-15T04:12:00.091584,2.00608092,.69107365,63.2178,151.2342,267.3397,18.7345,0,U,58584,999,1888,0,.129E-5,0
TIANMU-1 11,2023-205A,2026-07-18T07:23:55.150944,15.27281241,.00069095,97.3442,220.3819,248.0186,112.0320,0,U,58645,999,14227,.10367497E-3,.2699E-4,0
TIANMU-1 12,2023-205B,2026-07-18T06:44:40.146144,15.27113578,.00060863,97.3431,220.1008,221.0346,139.0436,0,U,58646,999,14225,.10911877E-3,.2829E-4,0
TIANMU-1 13,2023-205C,2026-07-18T07:32:50.803296,15.27106187,.00061549,97.3458,220.4148,199.7858,160.3144,0,U,58647,999,14225,.1065307E-3,.276E-4,0
TIANMU-1 14,2023-205D,2026-07-18T05:35:53.428992,15.27149908,.00067387,97.3395,219.4924,207.7119,152.3762,0,U,58648,999,14224,.10992247E-3,.2854E-4,0
TIANMU-1 19,2023-208A,2026-07-18T07:35:16.604160,15.32003763,.00049152,97.4529,315.7887,186.9479,173.1695,0,U,58660,999,14209,.14374414E-3,.4363E-4,0
