FENGYUN 3D              
1 43010U 17072A   26199.22667470 -.00000001  00000+0  21463-4 0  9997
2 43010  99.0149 174.2134 0001407   8.2002 351.9197 14.19744597449393
NOAA 20 (JPSS-1)        
1 43013U 17073A   26199.29722826  .00000021  00000+0  30686-4 0  9993
2 43013  98.7772 138.4844 0001504 121.0882 239.0442 14.19516792448888
GOES 17                 
1 43226U 18022A   26199.24822765 -.00000191  00000+0  00000+0 0  9993
2 43226   1.0150  85.2152 0000621  69.8059 140.8922  1.00270835 30730
SENTINEL-3B             
1 43437U 18039A   26199.18710280  .00000046  00000+0  37092-4 0  9990
2 43437  98.6234 266.2721 0001216 119.6897 240.4405 14.26736887428546
FENGYUN 2H              
1 43491U 18050A   26198.99647797 -.00000136  00000+0  00000+0 0  9998
2 43491   3.1089  78.7114 0002245 133.7146 161.1974  1.00266934 29742
METOP-C                 
1 43689U 18087A   26199.24960856  .00000029  00000+0  32876-4 0  9991
2 43689  98.6627 258.2828 0002124  89.6252 270.5169 14.21503322399246
GEO-KOMPSAT-2A          
1 43823U 18100A   26199.22003495 -.00000352  00000+0  00000+0 0  9991
2 43823   0.0305 160.4783 0002315 295.3721  47.6390  1.00273136 27943
METEOR-M2 2             
1 44387U 19038A   26199.22314069  .00000432  00000+0  20650-3 0  9995
2 44387  98.9162 186.9697 0000540 357.9234   2.1942 14.24374748365715
ARKTIKA-M 1             
1 47719U 21016A   26195.40739072 -.00000301  00000+0  00000+0 0  9996
2 47719  63.2662  53.6722 7297332 270.0591  14.4994  2.00611590 39330
FENGYUN 3E              
1 49008U 21062A   26199.27758409  .00000374  00000+0  19691-3 0  9993
2 49008  98.7499 202.3403 0002106  33.7010 326.4300 14.19907650260992
GOES 18                 
1 51850U 22021A   26198.95354755  .00000088  00000+0  00000+0 0  9999
2 51850   0.0156 130.5732 0000429  38.1260 333.3332  1.00272139  6909
NOAA 21 (JPSS-2)        
1 54234U 22150A   26199.25899068 -.00000004  00000+0  18640-4 0  9999
2 54234  98.7059 137.5264 0002883  99.2826 260.8677 14.19541313190955
METEOSAT-12 (MTG-I1)    
1 54743U 22170C   26199.26582106 -.00000017  00000+0  00000+0 0  9999
2 54743   0.7285  20.2726 0003943  81.3487 289.7853  1.00268617 13294
TIANMU-1 03             
1 55973U 23039A   26199.27782834  .00008532  00000+0  16456-3 0  9996
2 55973  97.5247  14.4860 0002318  16.5736 343.5589 15.48097216185644
TIANMU-1 04             
1 55974U 23039B   26199.31961696  .00008983  00000+0  16940-3 0  9995
2 55974  97.5188  13.6857 0002710   0.5547 359.5706 15.48727399185667
TIANMU-1 05             
1 55975U 23039C   26199.32475867  .00008495  00000+0  16428-3 0  9996
2 55975  97.5232  14.1380 0002683  37.8947 322.2491 15.48023713185635
TIANMU-1 06             
1 55976U 23039D   26199.32500949  .00008820  00000+0  16698-3 0  9998
2 55976  97.5240  14.8057 0002748  27.9837 332.1560 15.48623636185663
FENGYUN 3G              
1 56232U 23055A   26199.24232433  .00014135  00000+0  22184-3 0  9996
2 56232  49.9913 185.8447 0006939  70.2195 289.9520 15.53876840184839
METEOR-M2 3             
1 57166U 23091A   26199.29489997 -.00000012  00000+0  13718-4 0  9991
2 57166  98.6066 253.6338 0005130  83.3942 276.7821 14.24049107158942
TIANMU-1 07             
1 57399U 23101A   26199.29712027  .00003225  00000+0  11315-3 0  9992
2 57399  97.2572 249.2549 0003529  58.2670 301.8915 15.30136049166405
TIANMU-1 08             
1 57400U 23101B   26199.32907562  .00003183  00000+0  11167-3 0  9997
2 57400  97.2561 249.0521 0004309  38.2395 321.9151 15.30139737166405
TIANMU-1 09             
1 57401U 23101C   26199.31175354  .00003305  00000+0  11570-3 0  9997
2 57401  97.2519 248.4352 0004137  57.7738 302.3903 15.30181438166403
TIANMU-1 10             
1 57402U 23101D   26199.27995279  .00003253  00000+0  11402-3 0  9995
2 57402  97.2599 249.4864 0005386  45.7717 314.3965 15.30154900166395
FENGYUN 3F              
1 57490U 23111A   26199.33121588  .00000004  00000+0  22264-4 0  9994
2 57490  98.6823 268.7575 0001211  75.7169 284.4142 14.19943744153283
ARKTIKA-M 2             
1 58584U 23198A   26196.17500106  .00000129  00000+0  00000+0 0  9997
2 58584  63.2178 151.2342 6910736 267.3397  18.7345  2.00608092 18886
TIANMU-1 11             
1 58645U 23205A   26199.30827721  .00002699  00000+0  10367-3 0  9992
2 58645  97.3442 220.3819 0006909 248.0186 112.0320 15.27281241142275
TIANMU-1 12             
1 58646U 23205B   26199.28102021  .00002829  00000+0  10912-3 0  9990
2 58646  97.3431 220.1008 0006086 221.0346 139.0436 15.27113578142259
TIANMU-1 13             
1 58647U 23205C   26199.31447689  .00002760  00000+0  10653-3 0  9993
2 58647  97.3458 220.4148 0006154 199.7858 160.3144 15.27106187142253
TIANMU-1 14             
1 58648U 23205D   26199.23325728  .00002854  00000+0  10992-3 0  9994
2 58648  97.3395 219.4924 0006738 207.7119 152.3762 15.27149908142246
TIANMU-1 19             
1 58660U 23208A   26199.31616440  .00004363  00000+0  14374-3 0  9999
2 58660  97.4529 315.7887 0004915 186.9479 173.1695 15.32003763142093
